STARLINK-11141 [DTC]    
1 60066U 24113H   24190.91667824 -.00010957  00000+0 -63056-4 0  9995
2 60066  53.1670 313.3597 0000810 133.8197 153.1624 15.76722229  4261
STARLINK-11153 [DTC]    
1 60067U 24113J   24189.84766784 -.00471145  00000+0 -25864-2 0  9994
2 60067  53.1684 318.6316 0001830   7.0606 353.0442 15.80271000  4062
STARLINK-11170 [DTC]    
1 60068U 24113K   24190.92056002 -.00378086  00000+0 -20135-2 0  9997
2 60068  53.1676 313.2349 0001655 200.7683 159.3273 15.80691719  3930
STARLINK-11171 [DTC]    
1 60069U 24113L   24190.85574641  .00090813  00000+0  45266-3 0  9994
2 60069  53.1678 313.5408 0000539  79.3891 280.7192 15.81166653  3926
STARLINK-11186 [DTC]    
1 60070U 24113M   24190.85419775  .00118014  00000+0  58271-3 0  9996
2 60070  53.1679 313.5304 0000398  77.6428 282.4640 15.81264676  4331
STARLINK-11184 [DTC]    
1 60071U 24113N   24190.85264103  .00033033  00000+0  16782-3 0  9998
2 60071  53.1682 313.5194 0002792  44.1119 316.0127 15.81185386  3927
STARLINK-32111          
1 60073U 24113Q   24190.85457766  .01361860  11766-4  77889-3 0  9993
2 60073  53.1667 310.9855 0015890 328.4507 174.7439 16.18027073  3956
STARLINK-32115          
1 60074U 24113R   24190.59224443  .01113944  11756-4  65040-3 0  9992
2 60074  53.1629 312.2995 0015376 325.6991 123.1471 16.17783824  3912
STARLINK-32116          
1 60075U 24113S   24190.69924281  .02756862  12052-4  68352-3 0  9993
2 60075  53.1571 311.4257 0015354 318.4140 183.4457 16.28037069  3933
STARLINK-32117          
1 60076U 24113T   24190.85839103  .01166108  11723-4  74686-3 0  9998
2 60076  53.1618 311.0185 0016612 329.0387 173.4663 16.16490636  3951
STARLINK-32032          
1 60077U 24113U   24190.91667824 -.02185696  00000+0 -50040-1 0  9998
2 60077  53.1589 314.5870 0000945  82.2994 311.4366 15.45965581  4358
STARLINK-32110          
1 60078U 24113V   24191.08700086  .01840805  11914-4  69232-3 0  9999
2 60078  53.1639 309.5202 0015157 326.0217 204.7788 16.23313189  3995
KINEIS-1B               
1 60079U 24114A   24190.80027846  .00002516  00000+0  35845-3 0  9996
2 60079  98.0282 206.5006 0001945 190.1488 169.9683 14.77689705  2662
ELECTRON R/B            
1 60080U 24114B   24190.95412656  .08343383  24050-5  83084-3 0  9994
2 60080  98.0013 209.6124 0065393 164.2596 250.1570 16.28800597  2851
KINEIS-1C               
1 60081U 24114C   24190.94298979  .00002442  00000+0  35300-3 0  9995
2 60081  98.0283 206.6253 0001000  62.5473 297.5839 14.77094455  2673
KINEIS-1D               
1 60082U 24114D   24190.80649476  .00002312  00000+0  33397-3 0  9993
2 60082  98.0283 206.4921 0000532  46.4638 313.6616 14.77174753  2658
KINEIS-1E               
1 60083U 24114E   24190.94091677  .00002347  00000+0  33824-3 0  9996
2 60083  98.0282 206.6287 0001176 118.5993 241.5336 14.77262810  2677
KINEIS-1A               
1 60084U 24114F   24190.93714798  .00002362  00000+0  33789-3 0  9999
2 60084  98.0283 206.6336 0001259 211.1105 149.0030 14.77573252  2679
ELECTRON KICK STAGE R/B 
1 60085U 24114G   24190.95314831  .00007214  00000+0  55850-3 0  9990
2 60085  98.0273 207.2533 0091428 334.6084  25.0659 14.98478494  2719
ASTRA 1P                
1 60086U 24115A   24190.86943325 -.00000182  00000+0  00000+0 0  9999
2 60086  23.7148  61.0918 7708659 183.4186 163.1419  1.26732004    94
FALCON 9 R/B            
1 60087U 24115B   24190.66604841  .00000373  00000+0  14377-2 0  9991
2 60087  28.0184  60.8706 7977708 183.9620 158.8699  1.43353497   260
2024-116A               
1 60088U 24116A   24190.59653661  .00002269  00000+0  27868-3 0  9995
2 60088  28.9949 265.0016 0004774  41.2260 318.8693 14.79884739  2383
SVOM                    
1 60089U 24116B   24190.86909823  .00002012  00000+0  24678-3 0  9992
2 60089  28.9950 263.3284 0005766  31.0444 329.0489 14.79626412  2421
CZ-2C R/B               
1 60090U 24116C   24190.55701084  .00567844 -73739-5  88982-3 0  9992
2 60090  28.0433 250.3684 0243326 211.1907 147.4043 15.66278723  2457
STARLINK-31441          
1 60091U 24117A   24190.91667824 -.00619468  00000+0 -30605-2 0  9991
2 60091  53.1482 350.7797 0001117  72.7847  57.7810 15.82899697  3368
STARLINK-32044          
1 60092U 24117B   24190.91667824 -.00624298  00000+0 -30865-2 0  9997
2 60092  53.1479 350.7742 0001198  69.1022  64.2833 15.82896277  3425
STARLINK-31239          
1 60093U 24117C   24190.91667824 -.00628199  00000+0 -31083-2 0  9995
2 60093  53.1476 350.7671 0001226  64.1670  72.2205 15.82888521  3560
STARLINK-32007          
1 60094U 24117D   24190.91667824 -.00632670  00000+0 -31331-2 0  9991
2 60094  53.1481 350.7623 0001026  62.2281  77.0652 15.82882772  3414
STARLINK-32028          
1 60095U 24117E   24190.91667824 -.00634625  00000+0 -31425-2 0  9998
2 60095  53.1481 350.7571 0001287  67.0836  74.4900 15.82887610  3575
STARLINK-32016          
1 60096U 24117F   24189.41667824 -.00652003  00000+0 -29145-2 0  9998
2 60096  53.1480 358.3017 0001185  85.7505 140.4900 15.85064924  3292
STARLINK-32003          
1 60097U 24117G   24190.91667824 -.00645724  00000+0 -32054-2 0  9991
2 60097  53.1482 350.7442 0001131  65.9268  82.0409 15.82863449  3561
STARLINK-32026          
1 60098U 24117H   24190.91667824 -.00656786  00000+0 -32665-2 0  9990
2 60098  53.1481 350.7318 0000842  78.8621  74.8037 15.82852406  3362
STARLINK-31732          
1 60099U 24117J   24190.91667824 -.00649462  00000+0 -32265-2 0  9990
2 60099  53.1483 350.7380 0001349  69.9244  81.0053 15.82854348  3566
STARLINK-31996          
1 60100U 24117K   24190.91667824 -.00657866  00000+0 -32726-2 0  9992
2 60100  53.1482 350.7270 0001337  72.0416  84.2887 15.82846846  3462
STARLINK-31999          
1 60101U 24117L   24190.91667824 -.00660438  00000+0 -32870-2 0  9992
2 60101  53.1481 350.7216 0001313  60.4061  98.5713 15.82842980  3565
STARLINK-31954          
1 60102U 24117M   24190.91667824 -.00667639  00000+0 -33283-2 0  9992
2 60102  53.1484 350.7148 0000965  72.6407  89.5773 15.82828420  3361
STARLINK-32013          
1 60103U 24117N   24190.91667824 -.00672416  00000+0 -33539-2 0  9996
2 60103  53.1486 350.7103 0000965  49.6872 114.9989 15.82828858  3564
STARLINK-32009          
1 60104U 24117P   24190.91667824 -.00730451  00000+0 -30937-2 0  9990
2 60104  53.1478 350.3964 0001223  67.6852 248.1887 15.86352773  3630
STARLINK-32018          
1 60105U 24117Q   24190.91667824 -.00686184  00000+0 -34338-2 0  9993
2 60105  53.1483 350.6915 0001130  65.1239 108.5455 15.82792182  3633
STARLINK-32045          
1 60106U 24117R   24190.91667824 -.00680750  00000+0 -34025-2 0  9990
2 60106  53.1485 350.6983 0001104  69.9678 100.7065 15.82804556  3417
STARLINK-32035          
1 60107U 24117S   24190.91667824 -.00692493  00000+0 -34712-2 0  9991
2 60107  53.1485 350.6848 0001146  68.1912 108.7988 15.82772007  3569
STARLINK-32042          
1 60108U 24117T   24189.91667824 -.00704217  00000+0 -32773-2 0  9993
2 60108  53.1491 355.7062 0001353  71.8035 166.3509 15.84354012  3370
STARLINK-32040          
1 60109U 24117U   24190.91667824 -.00695985  00000+0 -34905-2 0  9996
2 60109  53.1487 350.6804 0001092  58.1076 121.3712 15.82770068  3566
STARLINK-32001          
1 60110U 24117V   24189.66668981 -.00780896  00000+0 -35908-2 0  9993
2 60110  53.1491 356.9583 0001119  64.0164 190.5804 15.84787450  3374
STARLINK-32015          
1 60111U 24117W   24190.91667824 -.00711584  00000+0 -35823-2 0  9993
2 60111  53.1484 350.6608 0001146  68.0586 120.3734 15.82727685  3474
STARLINK-32024          
1 60112U 24117X   24189.55812658 -.00376099  00000+0 -16257-2 0  9997
2 60112  53.1486 357.4925 0001851 138.4421 221.6744 15.85096970  3359
STARLINK-11201 [DTC]    
1 60113U 24118A   24190.94703601 -.00064455  00000+0 -38794-3 0  9992
2 60113  53.1686 345.0742 0001586  11.1656 348.9400 15.77006908  2347
STARLINK-11198 [DTC]    
1 60114U 24118B   24190.91667824  .00187250  00000+0  11494-2 0  9990
2 60114  53.1687 345.2021 0000460  81.2029 118.8926 15.76201938  3238
STARLINK-11112 [DTC]    
1 60115U 24118C   24190.91667824  .00181706  00000+0  11010-2 0  9995
2 60115  53.1680 345.1681 0001057  74.3913 142.0860 15.76514444  3461
STARLINK-11210 [DTC]    
1 60116U 24118D   24190.83334491 -.00106542  00000+0 -65456-3 0  9999
2 60116  53.1683 345.5261 0000796   2.1175 128.7608 15.76749382  3249
STARLINK-11203 [DTC]    
1 60117U 24118E   24190.91667824  .00062201  00000+0  38188-3 0  9991
2 60117  53.1677 345.0544 0002447 110.5048 161.3429 15.76690036  3403
STARLINK-11177 [DTC]    
1 60118U 24118F   24190.91667824  .00041573  00000+0  25709-3 0  9996
2 60118  53.1678 344.9977 0001122  50.8475 248.7260 15.76699915  3400
STARLINK-11127 [DTC]    
1 60119U 24118G   24190.91667824 -.00265916  00000+0 -16603-2 0  9990
2 60119  53.1677 344.9404 0000365  95.7122 231.5105 15.76888592  3241
STARLINK-11164 [DTC]    
1 60120U 24118H   24190.91667824 -.01457576  00000+0 -86916-2 0  9992
2 60120  53.1674 344.8949 0000705  32.1520 316.9862 15.79983503  3450
STARLINK-11119 [DTC]    
1 60121U 24118J   24190.85173648  .00065429  00000+0  29136-3 0  9993
2 60121  53.1677 345.1746 0001237  82.2211 277.8954 15.83710190  2335
STARLINK-11157 [DTC]    
1 60122U 24118K   24190.85329567 -.00044124  00000+0 -19675-3 0  9995
2 60122  53.1696 345.1859 0002015 118.3740 241.7487 15.83357033  3116
STARLINK-11162 [DTC]    
1 60123U 24118L   24190.78747700 -.00044951  00000+0 -19806-3 0  9995
2 60123  53.1672 345.4852 0000839 127.2336 232.8764 15.83620020  2329
STARLINK-11161 [DTC]    
1 60124U 24118M   24190.84938088 -.00110488  00000+0 -49783-3 0  9990
2 60124  53.1680 345.1595 0002626 113.0547 247.0754 15.83504886  2332
